H1 CPF 01  gfz 2022 02 12 13  5432 terrasarx 
H2 0702601  6201 31698    2022 02 12 12 59 42 2022 02 17 00 00 42   120 1 1  0 0 0
H9
10 0 59622  79902.000000  0    1184329.493   -356301.364  -6783315.689
10 0 59622  80022.000000  0    1565872.104  -1173679.544  -6611580.152
10 0 59622  80142.000000  0    1906109.505  -1977043.009  -6324500.622
10 0 59622  80262.000000  0    2199502.285  -2751684.709  -5927021.240
10 0 59622  80382.000000  0    2441562.957  -3483281.534  -5426000.927
10 0 59622  80502.000000  0    2628926.322  -4158160.093  -4830106.051
10 0 59622  80622.000000  0    2759396.843  -4763553.599  -4149669.503
10 0 59622  80742.000000  0    2831972.879  -5287846.786  -3396522.499
10 0 59622  80862.000000  0    2846847.375  -5720807.357  -2583798.107
10 0 59622  80982.000000  0    2805384.432  -6053795.235  -1725706.802
10 0 59622  81102.000000  0    2710072.406  -6279945.235   -837289.203
10 0 59622  81222.000000  0    2564452.090  -6394317.469     65851.681
10 0 59622  81342.000000  0    2373022.244  -6394009.320    967830.854
10 0 59622  81462.000000  0    2141125.927  -6278228.593   1852768.375
10 0 59622  81582.000000  0    1874818.827  -6048323.414   2705079.428
10 0 59622  81702.000000  0    1580723.572  -5707767.461   3509756.845
10 0 59622  81822.000000  0    1265874.164  -5262103.122   4252641.045
10 0 59622  81942.000000  0     937554.537  -4718844.434   4920672.075
10 0 59622  82062.000000  0     603135.218  -4087342.854   5502120.834
10 0 59622  82182.000000  0     269911.137  -3378616.016   5986793.861
10 0 59622  82302.000000  0     -55053.914  -2605145.621   6366206.530
10 0 59622  82422.000000  0    -365074.043  -1780651.645   6633724.303
10 0 59622  82542.000000  0    -653976.006   -919846.290   6784672.771
10 0 59622  82662.000000  0    -916220.290    -38169.899   6816415.539
10 0 59622  82782.000000  0   -1147006.397    848486.767   6728397.653
10 0 59622  82902.000000  0   -1342360.251   1724068.530   6522154.330
10 0 59622  83022.000000  0   -1499202.537   2572645.704   6201285.922
10 0 59622  83142.000000  0   -1615397.552   3378704.115   5771399.020
10 0 59622  83262.000000  0   -1689781.266   4127430.437   5240013.695
10 0 59622  83382.000000  0   -1722168.105   4804988.716   4616439.006
10 0 59622  83502.000000  0   -1713336.995   5398783.408   3911615.183
10 0 59622  83622.000000  0   -1664995.582   5897702.060   3137925.096
10 0 59622  83742.000000  0   -1579725.273   6292332.392   2308977.722
10 0 59622  83862.000000  0   -1460906.451   6575149.539   1439366.630
10 0 59622  83982.000000  0   -1312624.608   6740667.402    544407.778
10 0 59622  84102.000000  0   -1139561.253   6785549.927   -360136.821
10 0 59622  84222.000000  0    -946872.215   6708681.518  -1258345.581
10 0 59622  84342.000000  0    -740055.180   6511190.041  -2134429.147
10 0 59622  84462.000000  0    -524811.988   6196421.896  -2973015.596
10 0 59622  84582.000000  0    -306909.113   5769874.652  -3759423.278
10 0 59622  84702.000000  0     -92038.866   5239089.862  -4479918.447
10 0 59622  84822.000000  0     114315.064   4613507.449  -5121952.744
10 0 59622  84942.000000  0     307004.857   3904286.431  -5674375.795
10 0 59622  85062.000000  0     481335.579   3124095.825  -6127620.497
10 0 59622  85182.000000  0     633168.989   2286880.787  -6473857.688
10 0 59622  85302.000000  0     759012.923   1407610.588  -6707119.529
10 0 59622  85422.000000  0     856094.887    502012.237  -6823392.363
10 0 59622  85542.000000  0     922418.418   -413706.860  -6820678.480
10 0 59622  85662.000000  0     956801.663  -1323143.471  -6699025.972
10 0 59622  85782.000000  0     958897.623  -2209984.350  -6460526.237
10 0 59622  85902.000000  0     929196.627  -3058290.453  -6109283.009
10 0 59622  86022.000000  0     869010.158  -3852779.997  -5651351.467
10 0 59622  86142.000000  0     780435.721  -4579103.302  -5094642.872
10 0 59622  86262.000000  0     666304.892  -5224103.577  -4448799.059
10 0 59622  86382.000000  0     530113.694  -5776061.865  -3725036.952
10 0 59623    102.000000  0     375936.830  -6224919.716  -2935962.417
10 0 59623    222.000000  0     208327.617  -6562474.003  -2095357.205
10 0 59623    342.000000  0      32205.684  -6782540.448  -1217940.887
10 0 59623    462.000000  0    -147265.495  -6881079.073   -319110.909
10 0 59623    582.000000  0    -324808.024  -6856277.676    585332.555
10 0 59623    702.000000  0    -495162.796  -6708591.937   1479471.046
10 0 59623    822.000000  0    -653223.140  -6440740.692   2347556.992
10 0 59623    942.000000  0    -794165.333  -6057654.670   3174300.855
10 0 59623   1062.000000  0    -913571.354  -5566379.029   3945148.903
10 0 59623   1182.000000  0   -1007542.616  -4975934.702   4646543.173
10 0 59623   1302.000000  0   -1072801.471  -4297143.432   5266161.339
10 0 59623   1422.000000  0   -1106777.207  -3542420.362   5793132.945
10 0 59623   1542.000000  0   -1107675.854  -2725536.532   6218227.585
10 0 59623   1662.000000  0   -1074530.906  -1861359.393   6534009.280
10 0 59623   1782.000000  0   -1007235.192   -965579.156   6734959.753
10 0 59623   1902.000000  0    -906554.382    -54421.844   6817570.211
10 0 59623   2022.000000  0    -774121.051    855645.077   6780398.634
10 0 59623   2142.000000  0    -612408.014   1748209.854   6624093.773
10 0 59623   2262.000000  0    -424682.072   2607211.981   6351384.425
10 0 59623   2382.000000  0    -214939.265   3417231.067   5967034.725
10 0 59623   2502.000000  0      12176.906   4163765.552   5477765.956
10 0 59623   2622.000000  0     251473.557   4833496.045   4892144.718
10 0 59623   2742.000000  0     497321.675   5414530.225   4220439.504
10 0 59623   2862.000000  0     743781.035   5896621.493   3474443.001
10 0 59623   2982.000000  0     984734.714   6271358.570   2667271.843
10 0 59623   3102.000000  0    1214033.171   6532327.659   1813133.276
10 0 59623   3222.000000  0    1425639.471   6675227.806    927069.110
10 0 59623   3342.000000  0    1613774.847   6697947.076     24683.908
10 0 59623   3462.000000  0    1773060.326   6600593.659   -878137.912
10 0 59623   3582.000000  0    1898650.184   6385482.846  -1765519.690
10 0 59623   3702.000000  0    1986354.680   6057080.724  -2621878.983
10 0 59623   3822.000000  0    2032748.859   5621905.531  -3432207.339
10 0 59623   3942.000000  0    2035264.706   5088388.848  -4182337.215
10 0 59623   4062.000000  0    1992264.313   4466700.236  -4859189.298
10 0 59623   4182.000000  0    1903092.428   3768542.065  -5450995.410
10 0 59623   4302.000000  0    1768108.542   3006920.492  -5947494.939
10 0 59623   4422.000000  0    1588697.101   2195896.427  -6340102.872
10 0 59623   4542.000000  0    1367256.550   1350322.953  -6622046.060
10 0 59623   4662.000000  0    1107168.624    485574.803  -6788469.559
10 0 59623   4782.000000  0     812746.686   -382727.699  -6836511.923
10 0 59623   4902.000000  0     489164.523  -1238995.529  -6765348.102
10 0 59623   5022.000000  0     142367.368  -2067943.282  -6576200.498
10 0 59623   5142.000000  0    -221033.655  -2854854.076  -6272321.323
10 0 59623   5262.000000  0    -593884.082  -3585837.416  -5858944.064
10 0 59623   5382.000000  0    -968622.167  -4248072.520  -5343201.691
10 0 59623   5502.000000  0   -1337427.036  -4830034.948  -4734015.438
10 0 59623   5622.000000  0   -1692377.457  -5321703.325  -4041951.993
10 0 59623   5742.000000  0   -2025617.915  -5714740.714  -3279049.951
10 0 59623   5862.000000  0   -2329528.227  -6002646.417  -2458617.943
10 0 59623   5982.000000  0   -2596893.213  -6180875.109  -1595007.115
10 0 59623   6102.000000  0   -2821068.483  -6246920.009   -703360.464
10 0 59623   6222.000000  0   -2996138.010  -6200355.955    200656.946
10 0 59623   6342.000000  0   -3117058.653  -6042840.012   1101140.221
10 0 59623   6462.000000  0   -3179788.103  -5778070.246   1982233.101
10 0 59623   6582.000000  0   -3181392.723  -5411702.666   2828416.518
10 0 59623   6702.000000  0   -3120132.280  -4951228.933   3624789.828
10 0 59623   6822.000000  0   -2995519.550  -4405818.685   4357339.179
10 0 59623   6942.000000  0   -2808353.997  -3786130.138   5013187.432
10 0 59623   7062.000000  0   -2560728.989  -3104093.804   5580820.922
10 0 59623   7182.000000  0   -2256011.202  -2372675.228   6050288.739
10 0 59623   7302.000000  0   -1898794.344  -1605623.583   6413372.439
10 0 59623   7422.000000  0   -1494827.596   -817209.301   6663725.624
10 0 59623   7542.000000  0   -1050920.361    -21954.776   6796977.722
10 0 59623   7662.000000  0    -574827.368    765632.314   6810803.819
10 0 59623   7782.000000  0     -75113.430   1531322.782   6704963.717
10 0 59623   7902.000000  0     439000.539   2261422.844   6481306.053
10 0 59623   8022.000000  0     957807.344   2943018.908   6143737.484
10 0 59623   8142.000000  0    1471295.693   3564206.460   5698158.828
10 0 59623   8262.000000  0    1969342.346   4114301.280   5152367.889
10 0 59623   8382.000000  0    2441911.928   4584028.636   4515929.339
10 0 59623   8502.000000  0    2879260.277   4965685.812   3800011.343
10 0 59623   8622.000000  0    3272135.511   5253274.291   3017193.873
10 0 59623   8742.000000  0    3611976.231   5442603.387   2181249.798
10 0 59623   8862.000000  0    3891099.338   5531355.326   1306897.001
10 0 59623   8982.000000  0    4102870.425   5519112.567    409534.675
10 0 59623   9102.000000  0    4241855.930   5407347.483   -495036.821
10 0 59623   9222.000000  0    4303951.511   5199371.502  -1390902.435
10 0 59623   9342.000000  0    4286484.346   4900248.809  -2262320.221
10 0 59623   9462.000000  0    4188285.807   4516675.415  -3094004.908
10 0 59623   9582.000000  0    4009732.700   4056826.974  -3871400.983
10 0 59623   9702.000000  0    3752756.857   3530179.131  -4580937.740
10 0 59623   9822.000000  0    3420824.942   2947306.996  -5210263.073
10 0 59623   9942.000000  0    3018887.389   2319667.675  -5748452.514
99
